{"type": "FeatureCollection", "features": [{"type": "Feature", "properties": {"norad_id": 24946, "name": "IRIDIUM 33", "group": "iridium-33-debris", "lat": 22.699734798566293, "lon": -118.94164304653374, "alt_km": 768.5323167920596, "timestamp": "2025-12-26T04:40:06.169755+00:00", "meta": {"OBJECT_NAME": "IRIDIUM 33", "OBJECT_ID": "1997-051C", "EPOCH": "2025-12-25T06:11:00.134016", "MEAN_MOTION": 14.35045823, "ECCENTRICITY": 0.0008508, "INCLINATION": 86.3857, "RA_OF_ASC_NODE": 62.9667, "ARG_OF_PERICENTER": 159.9967, "MEAN_ANOMALY": 200.1564, "EPHEMERIS_TYPE": 0, "CLASSIFICATION_TYPE": "U", "NORAD_CAT_ID": 24946, "ELEMENT_SET_NO": 999, "REV_AT_EPOCH": 48014, "BSTAR": 0.00011524, "MEAN_MOTION_DOT": 3.48e-06, "MEAN_MOTION_DDOT": 0}, "tle": {"line1": "1 24946U 97051C   25359.25764044  .00000348  00000+0  11524-3 0  9993", "line2": "2 24946  86.3857  62.9667 0008508 159.9967 200.1564 14.35045823480147"}}, "geometry": {"type": "Point", "coordinates": [-118.94164304653374, 22.699734798566293]}}, {"type": "Feature", "properties": {"norad_id": 33773, "name": "IRIDIUM 33 DEB", "group": "iridium-33-debris", "lat": 27.583149749120697, "lon": -126.99754335641448, "alt_km": 739.8625811023212, "timestamp": "2025-12-26T04:40:06.169781+00:00", "meta": {"OBJECT_NAME": "IRIDIUM 33 DEB", "OBJECT_ID": "1997-051L", "EPOCH": "2025-12-25T14:39:17.561952", "MEAN_MOTION": 14.43283203, "ECCENTRICITY": 0.0013294, "INCLINATION": 86.3997, "RA_OF_ASC_NODE": 55.1348, "ARG_OF_PERICENTER": 109.508, "MEAN_ANOMALY": 250.7558, "EPHEMERIS_TYPE": 0, "CLASSIFICATION_TYPE": "U", "NORAD_CAT_ID": 33773, "ELEMENT_SET_NO": 999, "REV_AT_EPOCH": 88533, "BSTAR": 0.0002966, "MEAN_MOTION_DOT": 1.019e-05, "MEAN_MOTION_DDOT": 0}, "tle": {"line1": "1 33773U 97051L   25359.61061993  .00001019  00000+0  29660-3 0  9990", "line2": "2 33773  86.3997  55.1348 0013294 109.5080 250.7558 14.43283203885334"}}, "geometry": {"type": "Point", "coordinates": [-126.99754335641448, 27.583149749120697]}}, {"type": "Feature", "properties": {"norad_id": 33775, "name": "IRIDIUM 33 DEB", "group": "iridium-33-debris", "lat": 30.560664073565142, "lon": -138.3441820879261, "alt_km": 743.0145870887545, "timestamp": "2025-12-26T04:40:06.169797+00:00", "meta": {"OBJECT_NAME": "IRIDIUM 33 DEB", "OBJECT_ID": "1997-051N", "EPOCH": "2025-12-25T15:15:04.201056", "MEAN_MOTION": 14.41495203, "ECCENTRICITY": 0.0015345, "INCLINATION": 86.3624, "RA_OF_ASC_NODE": 44.0472, "ARG_OF_PERICENTER": 116.415, "MEAN_ANOMALY": 13.4748, "EPHEMERIS_TYPE": 0, "CLASSIFICATION_TYPE": "U", "NORAD_CAT_ID": 33775, "ELEMENT_SET_NO": 999, "REV_AT_EPOCH": 88326, "BSTAR": 0.00032187, "MEAN_MOTION_DOT": 1.066e-05, "MEAN_MOTION_DDOT": 0}, "tle": {"line1": "1 33775U 97051N   25359.63546529  .00001066  00000+0  32187-3 0  9997", "line2": "2 33775  86.3624  44.0472 0015345 116.4150  13.4748 14.41495203883260"}}, "geometry": {"type": "Point", "coordinates": [-138.3441820879261, 30.560664073565142]}}, {"type": "Feature", "properties": {"norad_id": 33776, "name": "IRIDIUM 33 DEB", "group": "iridium-33-debris", "lat": -42.49796949125473, "lon": -101.57050327747766, "alt_km": 767.9795803524194, "timestamp": "2025-12-26T04:40:06.169808+00:00", "meta": {"OBJECT_NAME": "IRIDIUM 33 DEB", "OBJECT_ID": "1997-051P", "EPOCH": "2025-12-25T18:12:32.556960", "MEAN_MOTION": 14.38256901, "ECCENTRICITY": 0.00157767, "INCLINATION": 86.4031, "RA_OF_ASC_NODE": 75.3085, "ARG_OF_PERICENTER": 149.2329, "MEAN_ANOMALY": 338.0492, "EPHEMERIS_TYPE": 0, "CLASSIFICATION_TYPE": "U", "NORAD_CAT_ID": 33776, "ELEMENT_SET_NO": 999, "REV_AT_EPOCH": 88269, "BSTAR": 0.00026708408, "MEAN_MOTION_DOT": 8.32e-06, "MEAN_MOTION_DDOT": 0}, "tle": {"line1": "1 33776U 97051P   25359.75871015  .00000832  00000+0  26708-3 0  9994", "line2": "2 33776  86.4031  75.3085 0015776 149.2329 338.0492 14.38256901882695"}}, "geometry": {"type": "Point", "coordinates": [-101.57050327747766, -42.49796949125473]}}, {"type": "Feature", "properties": {"norad_id": 33777, "name": "IRIDIUM 33 DEB", "group": "iridium-33-debris", "lat": 47.63462150708069, "lon": -154.63419016806247, "alt_km": 700.7349015325708, "timestamp": "2025-12-26T04:40:06.169820+00:00", "meta": {"OBJECT_NAME": "IRIDIUM 33 DEB", "OBJECT_ID": "1997-051Q", "EPOCH": "2025-12-25T19:48:50.912064", "MEAN_MOTION": 14.55702308, "ECCENTRICITY": 0.00064056, "INCLINATION": 86.3774, "RA_OF_ASC_NODE": 29.5095, "ARG_OF_PERICENTER": 194.4339, "MEAN_ANOMALY": 165.6687, "EPHEMERIS_TYPE": 0, "CLASSIFICATION_TYPE": "U", "NORAD_CAT_ID": 33777, "ELEMENT_SET_NO": 999, "REV_AT_EPOCH": 88724, "BSTAR": 0.00084106436, "MEAN_MOTION_DOT": 3.697e-05, "MEAN_MOTION_DDOT": 0}, "tle": {"line1": "1 33777U 97051Q   25359.82558926  .00003697  00000+0  84106-3 0  9994", "line2": "2 33777  86.3774  29.5095 0006405 194.4339 165.6687 14.55702308887245"}}, "geometry": {"type": "Point", "coordinates": [-154.63419016806247, 47.63462150708069]}}, {"type": "Feature", "properties": {"norad_id": 33850, "name": "IRIDIUM 33 DEB", "group": "iridium-33-debris", "lat": 16.796659616735433, "lon": -156.71329718050126, "alt_km": 744.9073358949854, "timestamp": "2025-12-26T04:40:06.169832+00:00", "meta": {"OBJECT_NAME": "IRIDIUM 33 DEB", "OBJECT_ID": "1997-051T", "EPOCH": "2025-12-25T13:32:16.366848", "MEAN_MOTION": 14.42178357, "ECCENTRICITY": 0.0013303, "INCLINATION": 86.3408, "RA_OF_ASC_NODE": 24.6646, "ARG_OF_PERICENTER": 122.9915, "MEAN_ANOMALY": 8.9113, "EPHEMERIS_TYPE": 0, "CLASSIFICATION_TYPE": "U", "NORAD_CAT_ID": 33850, "ELEMENT_SET_NO": 999, "REV_AT_EPOCH": 88337, "BSTAR": 0.00042851, "MEAN_MOTION_DOT": 1.431e-05, "MEAN_MOTION_DDOT": 0}, "tle": {"line1": "1 33850U 97051T   25359.56407832  .00001431  00000+0  42851-3 0  9991", "line2": "2 33850  86.3408  24.6646 0013303 122.9915   8.9113 14.42178357883370"}}, "geometry": {"type": "Point", "coordinates": [-156.71329718050126, 16.796659616735433]}}, {"type": "Feature", "properties": {"norad_id": 33853, "name": "IRIDIUM 33 DEB", "group": "iridium-33-debris", "lat": -83.93635250863178, "lon": -154.88856686821902, "alt_km": 852.4963377397398, "timestamp": "2025-12-26T04:40:06.169843+00:00", "meta": {"OBJECT_NAME": "IRIDIUM 33 DEB", "OBJECT_ID": "1997-051W", "EPOCH": "2025-12-25T22:21:09.286272", "MEAN_MOTION": 13.99124294, "ECCENTRICITY": 0.02078177, "INCLINATION": 85.9999, "RA_OF_ASC_NODE": 344.0258, "ARG_OF_PERICENTER": 195.1397, "MEAN_ANOMALY": 183.3683, "EPHEMERIS_TYPE": 0, "CLASSIFICATION_TYPE": "U", "NORAD_CAT_ID": 33853, "ELEMENT_SET_NO": 999, "REV_AT_EPOCH": 85530, "BSTAR": 0.0011388599, "MEAN_MOTION_DOT": 2.002e-05, "MEAN_MOTION_DDOT": 0}, "tle": {"line1": "1 33853U 97051W   25359.93135748  .00002002  00000+0  11389-2 0  9995", "line2": "2 33853  85.9999 344.0258 0207817 195.1397 183.3683 13.99124294855306"}}, "geometry": {"type": "Point", "coordinates": [-154.88856686821902, -83.93635250863178]}}, {"type": "Feature", "properties": {"norad_id": 33860, "name": "IRIDIUM 33 DEB", "group": "iridium-33-debris", "lat": -59.50203883033433, "lon": -152.55269644972196, "alt_km": 674.4329506719505, "timestamp": "2025-12-26T04:40:06.169855+00:00", "meta": {"OBJECT_NAME": "IRIDIUM 33 DEB", "OBJECT_ID": "1997-051AD", "EPOCH": "2025-12-25T01:40:13.916928", "MEAN_MOTION": 14.67512307, "ECCENTRICITY": 0.00060597, "INCLINATION": 86.3823, "RA_OF_ASC_NODE": 21.779, "ARG_OF_PERICENTER": 309.0617, "MEAN_ANOMALY": 111.5218, "EPHEMERIS_TYPE": 0, "CLASSIFICATION_TYPE": "U", "NORAD_CAT_ID": 33860, "ELEMENT_SET_NO": 999, "REV_AT_EPOCH": 88903, "BSTAR": 0.0011962769, "MEAN_MOTION_DOT": 6.804e-05, "MEAN_MOTION_DDOT": 0}, "tle": {"line1": "1 33860U 97051AD  25359.06960552  .00006804  00000+0  11963-2 0  9998", "line2": "2 33860  86.3823  21.7790 0006059 309.0617 111.5218 14.67512307889037"}}, "geometry": {"type": "Point", "coordinates": [-152.55269644972196, -59.50203883033433]}}, {"type": "Feature", "properties": {"norad_id": 33862, "name": "IRIDIUM 33 DEB", "group": "iridium-33-debris", "lat": 17.94305656423529, "lon": 32.761162573254566, "alt_km": 626.0889099573424, "timestamp": "2025-12-26T04:40:06.169865+00:00", "meta": {"OBJECT_NAME": "IRIDIUM 33 DEB", "OBJECT_ID": "1997-051AF", "EPOCH": "2025-12-25T12:47:12.217920", "MEAN_MOTION": 14.69679018, "ECCENTRICITY": 0.005205, "INCLINATION": 86.4084, "RA_OF_ASC_NODE": 31.8876, "ARG_OF_PERICENTER": 26.1582, "MEAN_ANOMALY": 93.1251, "EPHEMERIS_TYPE": 0, "CLASSIFICATION_TYPE": "U", "NORAD_CAT_ID": 33862, "ELEMENT_SET_NO": 999, "REV_AT_EPOCH": 89011, "BSTAR": 0.0015453, "MEAN_MOTION_DOT": 9.418e-05, "MEAN_MOTION_DDOT": 0}, "tle": {"line1": "1 33862U 97051AF  25359.53278030  .00009418  00000+0  15453-2 0  9997", "line2": "2 33862  86.4084  31.8876 0052050  26.1582  93.1251 14.69679018890114"}}, "geometry": {"type": "Point", "coordinates": [32.761162573254566, 17.94305656423529]}}, {"type": "Feature", "properties": {"norad_id": 33866, "name": "IRIDIUM 33 DEB", "group": "iridium-33-debris", "lat": 78.17990327904509, "lon": -110.6698397717506, "alt_km": 721.1000564366013, "timestamp": "2025-12-26T04:40:06.169876+00:00", "meta": {"OBJECT_NAME": "IRIDIUM 33 DEB", "OBJECT_ID": "1997-051AK", "EPOCH": "2025-12-25T18:40:33.881088", "MEAN_MOTION": 14.25314214, "ECCENTRICITY": 0.01153113, "INCLINATION": 86.2996, "RA_OF_ASC_NODE": 87.5194, "ARG_OF_PERICENTER": 120.0722, "MEAN_ANOMALY": 6.5458, "EPHEMERIS_TYPE": 0, "CLASSIFICATION_TYPE": "U", "NORAD_CAT_ID": 33866, "ELEMENT_SET_NO": 999, "REV_AT_EPOCH": 86996, "BSTAR": 0.00059555081, "MEAN_MOTION_DOT": 1.523e-05, "MEAN_MOTION_DDOT": 0}, "tle": {"line1": "1 33866U 97051AK  25359.77816992  .00001523  00000+0  59555-3 0  9993", "line2": "2 33866  86.2996  87.5194 0115311 120.0722   6.5458 14.25314214869961"}}, "geometry": {"type": "Point", "coordinates": [-110.6698397717506, 78.17990327904509]}}]}